[
    {
        "Altitude(m)": 607895.7964760137,
        "Argument of Periapsis(deg)": 0.0,
        "Eccentricity": 0.0,
        "Inclination(deg)": 60.0,
        "Latitude(deg)": 40.998282957641294,
        "Longitude(deg)": -29.911423992393377,
        "Mean Anomaly(deg)": -229.09089999999998,
        "RAAN(deg)": 280.0,
        "Satellite Name": "Test1 1240",
        "Satellite Number": 1240,
        "Semi-Major Axis(m)": 6980739.136638005,
        "Time(s)": 0
    },
    {
        "Altitude(m)": 607795.1096288557,
        "Argument of Periapsis(deg)": 0.00010418945913296404,
        "Eccentricity": 0.0,
        "Inclination(deg)": 60.0,
        "Latitude(deg)": 40.53060791170136,
        "Longitude(deg)": -29.414829432613576,
        "Mean Anomaly(deg)": -228.4707938545382,
        "RAAN(deg)": 279.99957995086027,
        "Satellite Name": "Test1 1240",
        "Satellite Number": 1240,
        "Semi-Major Axis(m)": 6980739.136638005,
        "Time(s)": 10
    }
]